NORAD_CAT_ID,OBJECT_NAME,OBJECT_TYPE,EPOCH,MEAN_MOTION,ECCENTRICITY,INCLINATION,RA_OF_ASC_NODE,ARG_OF_PERICENTER,MEAN_ANOMALY,BSTAR,MEAN_MOTION_DOT,MEAN_MOTION_DDOT,TLE_LINE0,TLE_LINE1,TLE_LINE2,SEMIMAJOR_AXIS,PERIOD,APOGEE,PERIGEE,DECAYED
56488.0,STARLINK-6204,PAYLOAD,2024-04-04 09:48:44,14.98331158,0.0002969,69.9993,80.3763,271.2852,88.7967,7.2984e-05,7.78e-06,0.0,0 STARLINK-6204,1 56488U 23064AS  24095.40884861  .00000778  00000-0  72984-4 0  9991,2 56488  69.9993  80.3763 0002969 271.2852  88.7967 14.98331158 51091,6950.189,96.107,574.118,569.991,0.0
56488.0,STARLINK-6204,PAYLOAD,2024-04-04 16:13:16,14.98330243,0.0002942,69.9995,79.703,270.4182,89.6639,4.7839e-05,4.78e-06,0.0,0 STARLINK-6204,1 56488U 23064AS  24095.67588955  .00000478  00000-0  47839-4 0  9993,2 56488  69.9995  79.7030 0002942 270.4182  89.6639 14.98330243 50774,6950.192,96.107,574.102,570.012,0.0
56488.0,STARLINK-6204,PAYLOAD,2024-04-05 08:14:37,14.98334771,0.0002977,69.9997,78.02,268.6254,91.4564,-0.00010997,-1.405e-05,0.0,0 STARLINK-6204,1 56488U 23064AS  24096.34348993 -.00001405  00000-0 -10997-3 0  9991,2 56488  69.9997  78.0200 0002977 268.6254  91.4564 14.98334771 50873,6950.178,96.107,574.112,569.974,0.0
56488.0,STARLINK-6204,PAYLOAD,2024-04-05 16:15:17,14.98327488,0.0003034,69.9994,77.1785,266.1677,93.9135,1.4161e-05,7.6e-07,0.0,0 STARLINK-6204,1 56488U 23064AS  24096.67729043  .00000076  00000-0  14161-4 0  9995,2 56488  69.9994  77.1785 0003034 266.1677  93.9135 14.98327488 51289,6950.201,96.107,574.174,569.957,0.0
56488.0,STARLINK-6204,PAYLOAD,2024-04-06 05:04:22,14.98305768,0.0002752,69.9995,75.8318,268.02,92.0644,0.00031975,3.722e-05,0.0,0 STARLINK-6204,1 56488U 23064AS  24097.21137422  .00003722  00000-0  31975-3 0  9992,2 56488  69.9995  75.8318 0002752 268.0200  92.0644 14.98305768 51367,6950.268,96.109,574.046,570.22,0.0
56488.0,STARLINK-6204,PAYLOAD,2024-04-06 08:16:38,14.98308968,0.0002667,69.9999,75.4947,267.5397,92.5456,0.0002697,3.125e-05,0.0,0 STARLINK-6204,1 56488U 23064AS  24097.34489533  .00003125  00000-0  26970-3 0  9995,2 56488  69.9999  75.4947 0002667 267.5397  92.5456 14.98308968 51025,6950.258,96.108,573.977,570.269,0.0
56488.0,STARLINK-6204,PAYLOAD,2024-04-06 21:05:43,14.98326539,0.000281,69.9995,74.1483,268.9276,91.1561,5.7559e-06,-2.4e-07,0.0,0 STARLINK-6204,1 56488U 23064AS  24097.87897269 -.00000024  00000-0  57559-5 0  9997,2 56488  69.9995  74.1483 0002810 268.9276  91.1561 14.98326539 51467,6950.204,96.107,574.022,570.116,0.0
56488.0,STARLINK-6204,PAYLOAD,2024-04-06 22:41:51,14.98330547,0.0002907,69.9995,73.98,270.5596,89.523,-6.7263e-05,-8.95e-06,0.0,0 STARLINK-6204,1 56488U 23064AS  24097.94573170 -.00000895  00000-0 -67263-4 0  9996,2 56488  69.9995  73.9800 0002907 270.5596  89.5230 14.98330547 51118,6950.191,96.107,574.077,570.036,0.0
56488.0,STARLINK-6204,PAYLOAD,2024-04-07 08:18:39,14.98327576,0.0003087,69.9999,72.9698,274.2034,85.8772,2.9361e-05,2.57e-06,0.0,0 STARLINK-6204,1 56488U 23064AS  24098.34629153  .00000257  00000-0  29361-4 0  9991,2 56488  69.9999  72.9698 0003087 274.2034  85.8772 14.98327576 51178,6950.2,96.107,574.211,569.92,0.0
56488.0,STARLINK-6204,PAYLOAD,2024-04-07 22:43:52,14.9833034,0.0002879,70.0,71.4554,271.1242,88.9587,-8.143e-06,-1.9e-06,0.0,0 STARLINK-6204,1 56488U 23064AS  24098.94713105 -.00000190  00000-0 -81430-5 0  9992,2 56488  70.0000  71.4554 0002879 271.1242  88.9587 14.98330340 51265,6950.192,96.107,574.058,570.056,0.0
56488.0,STARLINK-6204,PAYLOAD,2024-04-08 05:08:24,14.98327834,0.0002981,70.0,70.7819,272.3176,87.7641,7.5336e-05,8.06e-06,0.0,0 STARLINK-6204,1 56488U 23064AS  24099.21417052  .00000806  00000-0  75336-4 0  9994,2 56488  70.0000  70.7819 0002981 272.3176  87.7641 14.98327834 51660,6950.2,96.107,574.136,569.993,0.0
56488.0,STARLINK-6204,PAYLOAD,2024-04-08 14:45:12,14.98328318,0.0002877,70.0002,69.7725,270.1325,89.9504,5.94e-05,6.16e-06,0.0,0 STARLINK-6204,1 56488U 23064AS  24099.61473069  .00000616  00000-0  59400-4 0  9991,2 56488  70.0002  69.7725 0002877 270.1325  89.9504 14.98328318 51369,6950.198,96.107,574.063,570.064,0.0
56488.0,STARLINK-6204,PAYLOAD,2024-04-09 00:22:01,14.98331033,0.0002913,70.0002,68.762,271.217,88.8655,2.8793e-05,2.51e-06,0.0,0 STARLINK-6204,1 56488U 23064AS  24100.01528937  .00000251  00000-0  28793-4 0  9999,2 56488  70.0002  68.7620 0002913 271.2170  88.8655 14.98331033 51423,6950.19,96.107,574.079,570.03,0.0
56488.0,STARLINK-6204,PAYLOAD,2024-04-09 05:10:25,14.98332823,0.0002876,70.0003,68.2574,270.1688,89.9141,4.6566e-05,4.63e-06,0.0,0 STARLINK-6204,1 56488U 23064AS  24100.21556741  .00000463  00000-0  46566-4 0  9998,2 56488  70.0003  68.2574 0002876 270.1688  89.9141 14.98332823 51810,6950.184,96.107,574.048,570.05,0.0
56488.0,STARLINK-6204,PAYLOAD,2024-04-09 08:22:41,14.98333534,0.0002868,70.0003,67.9207,270.1562,89.9269,5.2423e-05,5.33e-06,0.0,0 STARLINK-6204,1 56488U 23064AS  24100.34908647  .00000533  00000-0  52423-4 0  9995,2 56488  70.0003  67.9207 0002868 270.1562  89.9269 14.98333534 51474,6950.182,96.107,574.04,570.054,0.0
56488.0,STARLINK-6204,PAYLOAD,2024-04-09 22:47:54,14.98329784,0.000285,70.0003,66.4055,271.2481,88.8352,-2.0593e-05,-3.39e-06,0.0,0 STARLINK-6204,1 56488U 23064AS  24100.94993060 -.00000339  00000-0 -20593-4 0  9993,2 56488  70.0003  66.4055 0002850 271.2481  88.8352 14.98329784 51565,6950.194,96.107,574.039,570.078,0.0
56488.0,STARLINK-6204,PAYLOAD,2024-04-10 05:12:26,14.98328807,0.0002867,70.0004,65.7323,271.1235,88.9595,-3.0305e-05,-4.55e-06,0.0,0 STARLINK-6204,1 56488U 23064AS  24101.21697142 -.00000455  00000-0 -30305-4 0  9997,2 56488  70.0004  65.7323 0002867 271.1235  88.9595 14.98328807 51969,6950.197,96.107,574.054,570.069,0.0
56488.0,STARLINK-6204,PAYLOAD,2024-04-10 14:49:14,14.98329102,0.0002857,70.0005,64.7224,270.8849,89.1983,-3.224e-05,-4.78e-06,0.0,0 STARLINK-6204,1 56488U 23064AS  24101.61753126 -.00000478  00000-0 -32240-4 0  9991,2 56488  70.0005  64.7224 0002857 270.8849  89.1983 14.98329102 51665,6950.196,96.107,574.046,570.075,0.0
56488.0,STARLINK-6204,PAYLOAD,2024-04-11 05:14:27,14.983285,0.0002851,70.0005,63.2072,269.5699,90.5133,-5.6413e-05,-7.66e-06,0.0,0 STARLINK-6204,1 56488U 23064AS  24102.21837252 -.00000766  00000-0 -56413-4 0  9999,2 56488  70.0005  63.2072 0002851 269.5699  90.5133 14.98328500 52117,6950.198,96.107,574.044,570.081,0.0
56488.0,STARLINK-6204,PAYLOAD,2024-04-11 06:50:35,14.98329099,0.0002854,70.0006,63.0389,269.7831,90.3001,-4.8941e-05,-6.77e-06,0.0,0 STARLINK-6204,1 56488U 23064AS  24102.28513201 -.00000677  00000-0 -48941-4 0  9999,2 56488  70.0006  63.0389 0002854 269.7831  90.3001 14.98329099 51766,6950.196,96.107,574.044,570.077,0.0
56488.0,STARLINK-6204,PAYLOAD,2024-04-11 14:51:15,14.98328505,0.000293,70.0006,62.1972,270.8944,89.1879,-1.8204e-06,-1.15e-06,0.0,0 STARLINK-6204,1 56488U 23064AS  24102.61893105 -.00000115  00000-0 -18204-5 0  9997,2 56488  70.0006  62.1972 0002930 270.8944  89.1879 14.98328505 51813,6950.198,96.107,574.099,570.026,0.0
56488.0,STARLINK-6204,PAYLOAD,2024-04-12 05:16:27,14.98331764,0.0002964,70.0005,60.6825,271.3131,88.7689,4.4611e-05,4.39e-06,0.0,0 STARLINK-6204,1 56488U 23064AS  24103.21976782  .00000439  00000-0  44611-4 0  9994,2 56488  70.0005  60.6825 0002964 271.3131  88.7689 14.98331764 52268,6950.187,96.107,574.112,569.992,0.0
56488.0,STARLINK-6204,PAYLOAD,2024-04-12 06:52:35,14.98332807,0.0002956,70.0005,60.5142,271.3742,88.7079,5.6102e-05,5.77e-06,0.0,0 STARLINK-6204,1 56488U 23064AS  24103.28652679  .00000577  00000-0  56102-4 0  9998,2 56488  70.0005  60.5142 0002956 271.3742  88.7079 14.98332807 51911,6950.184,96.107,574.104,569.995,0.0
56488.0,STARLINK-6204,PAYLOAD,2024-04-12 22:53:57,14.98325826,0.000294,70.0006,58.831,271.4637,88.6185,5.7976e-06,-2.4e-07,0.0,0 STARLINK-6204,1 56488U 23064AS  24103.95413271 -.00000024  00000-0  57976-5 0  9994,2 56488  70.0006  58.8310 0002940 271.4637  88.6185 14.98325826 52018,6950.206,96.107,574.114,570.027,0.0
56488.0,STARLINK-6204,PAYLOAD,2024-04-13 05:18:29,14.98329506,0.0002962,70.0007,58.158,271.9181,88.1639,1.9376e-05,1.38e-06,0.0,0 STARLINK-6204,1 56488U 23064AS  24104.22117043  .00000138  00000-0  19376-4 0  9999,2 56488  70.0007  58.1580 0002962 271.9181  88.1639 14.98329506 52416,6950.194,96.107,574.118,570.001,0.0
56488.0,STARLINK-6204,PAYLOAD,2024-04-13 06:54:37,14.98330715,0.0002959,70.0008,57.9897,271.9621,88.1199,3.2101e-05,2.9e-06,0.0,0 STARLINK-6204,1 56488U 23064AS  24104.28792931  .00000290  00000-0  32101-4 0  9990,2 56488  70.0008  57.9897 0002959 271.9621  88.1199 14.98330715 52066,6950.191,96.107,574.112,569.999,0.0
56488.0,STARLINK-6204,PAYLOAD,2024-04-13 21:19:49,14.98334219,0.0002846,70.0012,56.474,271.6503,88.433,1.2855e-05,6e-07,0.0,0 STARLINK-6204,1 56488U 23064AS  24104.88876703  .00000060  00000-0  12855-4 0  9995,2 56488  70.0012  56.4740 0002846 271.6503  88.4330 14.98334219 52156,6950.18,96.107,574.023,570.067,0.0
56488.0,STARLINK-6204,PAYLOAD,2024-04-14 06:56:38,14.98310849,0.0002643,70.0015,55.4652,269.8384,90.2472,0.00045834,5.377e-05,0.0,0 STARLINK-6204,1 56488U 23064AS  24105.28932980  .00005377  00000-0  45834-3 0  9998,2 56488  70.0015  55.4652 0002643 269.8384  90.2472 14.98310849 52578,6950.252,96.108,573.954,570.28,0.0
56488.0,STARLINK-6204,PAYLOAD,2024-04-14 21:21:50,14.98331757,0.0002547,70.0022,53.9511,264.7833,95.3035,2.8586e-05,2.48e-06,0.0,0 STARLINK-6204,1 56488U 23064AS  24105.89016572  .00000248  00000-0  28586-4 0  9993,2 56488  70.0022  53.9511 0002547 264.7833  95.3035 14.98331757 52661,6950.187,96.107,573.823,570.282,0.0
56488.0,STARLINK-6204,PAYLOAD,2024-04-15 06:58:38,14.98331889,0.000254,70.0022,52.9414,258.1411,101.9464,5.5558e-05,5.7e-06,0.0,0 STARLINK-6204,1 56488U 23064AS  24106.29072406  .00000570  00000-0  55558-4 0  9993,2 56488  70.0022  52.9414 0002540 258.1411 101.9464 14.98331889 52367,6950.187,96.107,573.817,570.287,0.0
